{
  "type": "FeatureCollection",
  "features": [
    {
      "type": "Feature",
      "properties": {
        "norad_id": 34314,
        "name": "COSMOS 2251 DEB",
        "group": "cosmos-2251-debris",
        "lat": -15.50294860667363,
        "lon": -67.16797594020275,
        "alt_km": 798.0612503614047,
        "timestamp": "2025-12-18T21:31:51.398965+00:00",
        "meta_object_name": "COSMOS 2251 DEB",
        "meta_object_id": "1993-036NL",
        "meta_epoch": "2025-12-18T07:04:11.146080",
        "meta_mean_motion": 14.17436557,
        "meta_eccentricity": 0.01030967,
        "meta_inclination": 74.0056,
        "meta_ra_of_asc_node": 298.4701,
        "meta_arg_of_pericenter": 42.8289,
        "meta_mean_anomaly": 108.6734,
        "meta_ephemeris_type": 0,
        "meta_classification_type": "U",
        "meta_norad_cat_id": 34314,
        "meta_element_set_no": 999,
        "meta_rev_at_epoch": 86736,
        "meta_bstar": 0.00053182073,
        "meta_mean_motion_dot": 1.111e-05,
        "meta_mean_motion_ddot": 0,
        "tle_line1": "1 34314U 93036NL  25352.29457345  .00001111  00000+0  53182-3 0  9997",
        "tle_line2": "2 34314  74.0056 298.4701 0103096  42.8289 108.6734 14.17436557867364"
      },
      "geometry": {
        "type": "Point",
        "coordinates": [
          -67.16797594020275,
          -15.50294860667363
        ]
      }
    },
    {
      "type": "Feature",
      "properties": {
        "norad_id": 34316,
        "name": "COSMOS 2251 DEB",
        "group": "cosmos-2251-debris",
        "lat": 24.94566931417308,
        "lon": -27.80980626607522,
        "alt_km": 584.9327008672008,
        "timestamp": "2025-12-18T21:31:51.398976+00:00",
        "meta_object_name": "COSMOS 2251 DEB",
        "meta_object_id": "1993-036NN",
        "meta_epoch": "2025-12-18T05:19:20.370720",
        "meta_mean_motion": 14.91994244,
        "meta_eccentricity": 0.00086979,
        "meta_inclination": 74.0647,
        "meta_ra_of_asc_node": 325.9054,
        "meta_arg_of_pericenter": 47.9486,
        "meta_mean_anomaly": 312.2436,
        "meta_ephemeris_type": 0,
        "meta_classification_type": "U",
        "meta_norad_cat_id": 34316,
        "meta_element_set_no": 999,
        "meta_rev_at_epoch": 89291,
        "meta_bstar": 0.0014581468,
        "meta_mean_motion_dot": 0.00014787,
        "meta_mean_motion_ddot": 0,
        "tle_line1": "1 34316U 93036NN  25352.22176355  .00014787  00000+0  14581-2 0  9993",
        "tle_line2": "2 34316  74.0647 325.9054 0008697  47.9486 312.2436 14.91994244892910"
      },
      "geometry": {
        "type": "Point",
        "coordinates": [
          -27.80980626607522,
          24.94566931417308
        ]
      }
    },
    {
      "type": "Feature",
      "properties": {
        "norad_id": 34317,
        "name": "COSMOS 2251 DEB",
        "group": "cosmos-2251-debris",
        "lat": -22.314619072354194,
        "lon": -147.58149846271064,
        "alt_km": 1267.4544107182155,
        "timestamp": "2025-12-18T21:31:51.398986+00:00",
        "meta_object_name": "COSMOS 2251 DEB",
        "meta_object_id": "1993-036NP",
        "meta_epoch": "2025-12-18T05:01:10.458912",
        "meta_mean_motion": 13.65127553,
        "meta_eccentricity": 0.03367075,
        "meta_inclination": 73.9245,
        "meta_ra_of_asc_node": 26.754,
        "meta_arg_of_pericenter": 14.9551,
        "meta_mean_anomaly": 49.1105,
        "meta_ephemeris_type": 0,
        "meta_classification_type": "U",
        "meta_norad_cat_id": 34317,
        "meta_element_set_no": 999,
        "meta_rev_at_epoch": 83694,
        "meta_bstar": 0.00042295691,
        "meta_mean_motion_dot": 4.83e-06,
        "meta_mean_motion_ddot": 0,
        "tle_line1": "1 34317U 93036NP  25352.20914883  .00000483  00000+0  42296-3 0  9991",
        "tle_line2": "2 34317  73.9245  26.7540 0336707  14.9551  49.1105 13.65127553836943"
      },
      "geometry": {
        "type": "Point",
        "coordinates": [
          -147.58149846271064,
          -22.314619072354194
        ]
      }
    },
    {
      "type": "Feature",
      "properties": {
        "norad_id": 34321,
        "name": "COSMOS 2251 DEB",
        "group": "cosmos-2251-debris",
        "lat": -30.216251954104173,
        "lon": 135.19120321224275,
        "alt_km": 724.443065171019,
        "timestamp": "2025-12-18T21:31:51.398996+00:00",
        "meta_object_name": "COSMOS 2251 DEB",
        "meta_object_id": "1993-036NT",
        "meta_epoch": "2025-12-17T21:24:20.903040",
        "meta_mean_motion": 14.50077783,
        "meta_eccentricity": 0.00159324,
        "meta_inclination": 74.0276,
        "meta_ra_of_asc_node": 146.6813,
        "meta_arg_of_pericenter": 275.9499,
        "meta_mean_anomaly": 207.0691,
        "meta_ephemeris_type": 0,
        "meta_classification_type": "U",
        "meta_norad_cat_id": 34321,
        "meta_element_set_no": 999,
        "meta_rev_at_epoch": 88561,
        "meta_bstar": 0.00046250348,
        "meta_mean_motion_dot": 1.769e-05,
        "meta_mean_motion_ddot": 0,
        "tle_line1": "1 34321U 93036NT  25351.89190860  .00001769  00000+0  46250-3 0  9993",
        "tle_line2": "2 34321  74.0276 146.6813 0015932 275.9499 207.0691 14.50077783885610"
      },
      "geometry": {
        "type": "Point",
        "coordinates": [
          135.19120321224275,
          -30.216251954104173
        ]
      }
    },
    {
      "type": "Feature",
      "properties": {
        "norad_id": 34323,
        "name": "COSMOS 2251 DEB",
        "group": "cosmos-2251-debris",
        "lat": 13.538085193208262,
        "lon": -72.94483490194482,
        "alt_km": 607.0130310302484,
        "timestamp": "2025-12-18T21:31:51.399007+00:00",
        "meta_object_name": "COSMOS 2251 DEB",
        "meta_object_id": "1993-036NV",
        "meta_epoch": "2025-12-17T19:18:44.714016",
        "meta_mean_motion": 14.7458924,
        "meta_eccentricity": 0.00583711,
        "meta_inclination": 73.9529,
        "meta_ra_of_asc_node": 113.1727,
        "meta_arg_of_pericenter": 156.0162,
        "meta_mean_anomaly": 332.7493,
        "meta_ephemeris_type": 0,
        "meta_classification_type": "U",
        "meta_norad_cat_id": 34323,
        "meta_element_set_no": 999,
        "meta_rev_at_epoch": 88514,
        "meta_bstar": 0.0017862883,
        "meta_mean_motion_dot": 0.00012223,
        "meta_mean_motion_ddot": 0,
        "tle_line1": "1 34323U 93036NV  25351.80468419  .00012223  00000+0  17863-2 0  9998",
        "tle_line2": "2 34323  73.9529 113.1727 0058371 156.0162 332.7493 14.74589240885140"
      },
      "geometry": {
        "type": "Point",
        "coordinates": [
          -72.94483490194482,
          13.538085193208262
        ]
      }
    },
    {
      "type": "Feature",
      "properties": {
        "norad_id": 34325,
        "name": "COSMOS 2251 DEB",
        "group": "cosmos-2251-debris",
        "lat": -73.79140900983201,
        "lon": 97.39802070231399,
        "alt_km": 842.9661686646577,
        "timestamp": "2025-12-18T21:31:51.399017+00:00",
        "meta_object_name": "COSMOS 2251 DEB",
        "meta_object_id": "1993-036NX",
        "meta_epoch": "2025-12-17T22:38:07.226880",
        "meta_mean_motion": 14.04503864,
        "meta_eccentricity": 0.01918485,
        "meta_inclination": 73.8702,
        "meta_ra_of_asc_node": 183.6388,
        "meta_arg_of_pericenter": 199.9789,
        "meta_mean_anomaly": 287.7508,
        "meta_ephemeris_type": 0,
        "meta_classification_type": "U",
        "meta_norad_cat_id": 34325,
        "meta_element_set_no": 999,
        "meta_rev_at_epoch": 85588,
        "meta_bstar": 0.0014716745,
        "meta_mean_motion_dot": 2.742e-05,
        "meta_mean_motion_ddot": 0,
        "tle_line1": "1 34325U 93036NX  25351.94313920  .00002742  00000+0  14717-2 0  9991",
        "tle_line2": "2 34325  73.8702 183.6388 0191848 199.9789 287.7508 14.04503864855882"
      },
      "geometry": {
        "type": "Point",
        "coordinates": [
          97.39802070231399,
          -73.79140900983201
        ]
      }
    },
    {
      "type": "Feature",
      "properties": {
        "norad_id": 34327,
        "name": "COSMOS 2251 DEB",
        "group": "cosmos-2251-debris",
        "lat": 17.46320868991581,
        "lon": -25.634771446749713,
        "alt_km": 623.1778495372955,
        "timestamp": "2025-12-18T21:31:51.399028+00:00",
        "meta_object_name": "COSMOS 2251 DEB",
        "meta_object_id": "1993-036NZ",
        "meta_epoch": "2025-12-17T22:46:47.813664",
        "meta_mean_motion": 14.89293767,
        "meta_eccentricity": 0.00331336,
        "meta_inclination": 73.9927,
        "meta_ra_of_asc_node": 161.4457,
        "meta_arg_of_pericenter": 336.7826,
        "meta_mean_anomaly": 144.6355,
        "meta_ephemeris_type": 0,
        "meta_classification_type": "U",
        "meta_norad_cat_id": 34327,
        "meta_element_set_no": 999,
        "meta_rev_at_epoch": 89585,
        "meta_bstar": 0.0009334137,
        "meta_mean_motion_dot": 8.911e-05,
        "meta_mean_motion_ddot": 0,
        "tle_line1": "1 34327U 93036NZ  25351.94916451  .00008911  00000+0  93341-3 0  9996",
        "tle_line2": "2 34327  73.9927 161.4457 0033133 336.7826 144.6355 14.89293767895853"
      },
      "geometry": {
        "type": "Point",
        "coordinates": [
          -25.634771446749713,
          17.46320868991581
        ]
      }
    }
  ]
}